STARLINK-37007          
1 68302U 26057J   26085.25002315 -.00886672  28687-3 -11221-2 0  9990
2 68302  97.2824 208.1283 0001162  51.8270  32.4190 16.07514333  1924
STARLINK-36300          
1 68303U 26057K   26085.25002315 -.00882030  28358-3 -11263-2 0  9996
2 68303  97.2824 208.1274 0001126  53.9089  28.7535 16.07369927  1979
STARLINK-36849          
1 68304U 26057L   26085.25002315 -.00886839  28733-3 -11153-2 0  9993
2 68304  97.2824 208.1286 0001221  51.6653  33.8235 16.07615004  1874
STARLINK-36277          
1 68305U 26057M   26085.25002315 -.00882476  28565-3 -10921-2 0  9992
2 68305  97.2821 208.1297 0001130  56.0860  32.2956 16.07871086  2038
STARLINK-36307          
1 68306U 26057N   26085.25002315 -.00888917  28897-3 -11104-2 0  9991
2 68306  97.2824 208.1295 0001129  50.8656  35.8331 16.07722069  1977
STARLINK-36264          
1 68307U 26057P   26085.25002315 -.00886724  28881-3 -10859-2 0  9995
2 68307  97.2823 208.1308 0001184  50.8842  39.2952 16.08038533  2032
STARLINK-37138          
1 68308U 26057Q   26085.25002315 -.00885168  28818-3 -10782-2 0  9992
2 68308  97.2819 208.1307 0001129  52.0854  39.1500 16.08122321  1703
STARLINK-37149          
1 68309U 26057R   26085.25002315 -.00883671  28771-3 -10684-2 0  9999
2 68309  97.2818 208.1313 0001256  49.5739  43.0119 16.08239655  1815
STARLINK-37148          
1 68310U 26057S   26085.25002315 -.00882493  28792-3 -10503-2 0  9995
2 68310  97.2817 208.1324 0001204  50.3659  45.0328 16.08488491  1922
STARLINK-37140          
1 68311U 26057T   26085.25002315 -.00878804  28525-3 -10540-2 0  9992
2 68311  97.2818 208.1322 0001196  52.7717  41.3099 16.08367245  2088
STARLINK-36854          
1 68312U 26057U   26085.25002315 -.00874195  28330-3 -10335-2 0  9998
2 68312  97.2817 208.1334 0001260  52.4183  44.2657 16.08592494  1871
STARLINK-36815          
1 68313U 26057V   26085.25002315 -.00874325  28389-3 -10245-2 0  9998
2 68313  97.2818 208.1342 0001264  47.7722  50.4439 16.08732440  1876
STARLINK-37155          
1 68314U 26057W   26085.25002315 -.00861277  27711-3 -99093-3 0  9998
2 68314  97.2816 208.1355 0001201  49.4068  52.0068 16.09018208  1924
STARLINK-37150          
1 68315U 26057X   26085.25002315 -.00866560  27980-3 -10054-2 0  9996
2 68315  97.2816 208.1348 0001098  54.6391  45.2917 16.08887519  1923
STARLINK-37154          
1 68316U 26057Y   26085.25002315 -.00852181  27275-3 -96219-3 0  9996
2 68316  97.2814 208.1368 0001153  55.7084  48.9359 16.09310910  1823
STARLINK-37139          
1 68317U 26057Z   26085.25002315 -.00861830  27800-3 -98190-3 0  9992
2 68317  97.2814 208.1361 0001209  52.8472  50.1984 16.09171417  1677
