[{"OBJECT_NAME":"STARLINK-37007","OBJECT_ID":"2026-057J","EPOCH":"2026-03-26T06:00:02.000160","MEAN_MOTION":16.07514333,"ECCENTRICITY":0.00011626,"INCLINATION":97.2824,"RA_OF_ASC_NODE":208.1283,"ARG_OF_PERICENTER":51.827,"MEAN_ANOMALY":32.419,"EPHEMERIS_TYPE":0,"CLASSIFICATION_TYPE":"U","NORAD_CAT_ID":68302,"ELEMENT_SET_NO":999,"REV_AT_EPOCH":192,"BSTAR":-0.0011221004,"MEAN_MOTION_DOT":-0.00886672,"MEAN_MOTION_DDOT":0.00028686801},{"OBJECT_NAME":"STARLINK-36300","OBJECT_ID":"2026-057K","EPOCH":"2026-03-26T06:00:02.000160","MEAN_MOTION":16.07369927,"ECCENTRICITY":0.00011264,"INCLINATION":97.2824,"RA_OF_ASC_NODE":208.1274,"ARG_OF_PERICENTER":53.9089,"MEAN_ANOMALY":28.7535,"EPHEMERIS_TYPE":0,"CLASSIFICATION_TYPE":"U","NORAD_CAT_ID":68303,"ELEMENT_SET_NO":999,"REV_AT_EPOCH":197,"BSTAR":-0.0011262972,"MEAN_MOTION_DOT":-0.0088203,"MEAN_MOTION_DDOT":0.00028357549},{"OBJECT_NAME":"STARLINK-36849","OBJECT_ID":"2026-057L","EPOCH":"2026-03-26T06:00:02.000160","MEAN_MOTION":16.07615004,"ECCENTRICITY":0.00012216,"INCLINATION":97.2824,"RA_OF_ASC_NODE":208.1286,"ARG_OF_PERICENTER":51.6653,"MEAN_ANOMALY":33.8235,"EPHEMERIS_TYPE":0,"CLASSIFICATION_TYPE":"U","NORAD_CAT_ID":68304,"ELEMENT_SET_NO":999,"REV_AT_EPOCH":187,"BSTAR":-0.0011152574,"MEAN_MOTION_DOT":-0.00886839,"MEAN_MOTION_DDOT":0.00028733369},{"OBJECT_NAME":"STARLINK-36277","OBJECT_ID":"2026-057M","EPOCH":"2026-03-26T06:00:02.000160","MEAN_MOTION":16.07871086,"ECCENTRICITY":0.00011301,"INCLINATION":97.2821,"RA_OF_ASC_NODE":208.1297,"ARG_OF_PERICENTER":56.086,"MEAN_ANOMALY":32.2956,"EPHEMERIS_TYPE":0,"CLASSIFICATION_TYPE":"U","NORAD_CAT_ID":68305,"ELEMENT_SET_NO":999,"REV_AT_EPOCH":203,"BSTAR":-0.0010920652,"MEAN_MOTION_DOT":-0.00882476,"MEAN_MOTION_DDOT":0.00028564551},{"OBJECT_NAME":"STARLINK-36307","OBJECT_ID":"2026-057N","EPOCH":"2026-03-26T06:00:02.000160","MEAN_MOTION":16.07722069,"ECCENTRICITY":0.00011291,"INCLINATION":97.2824,"RA_OF_ASC_NODE":208.1295,"ARG_OF_PERICENTER":50.8656,"MEAN_ANOMALY":35.8331,"EPHEMERIS_TYPE":0,"CLASSIFICATION_TYPE":"U","NORAD_CAT_ID":68306,"ELEMENT_SET_NO":999,"REV_AT_EPOCH":197,"BSTAR":-0.0011104369,"MEAN_MOTION_DOT":-0.00888917,"MEAN_MOTION_DDOT":0.00028897318},{"OBJECT_NAME":"STARLINK-36264","OBJECT_ID":"2026-057P","EPOCH":"2026-03-26T06:00:02.000160","MEAN_MOTION":16.08038533,"ECCENTRICITY":0.00011844,"INCLINATION":97.2823,"RA_OF_ASC_NODE":208.1308,"ARG_OF_PERICENTER":50.8842,"MEAN_ANOMALY":39.2952,"EPHEMERIS_TYPE":0,"CLASSIFICATION_TYPE":"U","NORAD_CAT_ID":68307,"ELEMENT_SET_NO":999,"REV_AT_EPOCH":203,"BSTAR":-0.0010858578,"MEAN_MOTION_DOT":-0.00886724,"MEAN_MOTION_DDOT":0.00028881249},{"OBJECT_NAME":"STARLINK-37138","OBJECT_ID":"2026-057Q","EPOCH":"2026-03-26T06:00:02.000160","MEAN_MOTION":16.08122321,"ECCENTRICITY":0.00011294,"INCLINATION":97.2819,"RA_OF_ASC_NODE":208.1307,"ARG_OF_PERICENTER":52.0854,"MEAN_ANOMALY":39.15,"EPHEMERIS_TYPE":0,"CLASSIFICATION_TYPE":"U","NORAD_CAT_ID":68308,"ELEMENT_SET_NO":999,"REV_AT_EPOCH":170,"BSTAR":-0.00107824,"MEAN_MOTION_DOT":-0.00885168,"MEAN_MOTION_DDOT":0.00028818169},{"OBJECT_NAME":"STARLINK-37149","OBJECT_ID":"2026-057R","EPOCH":"2026-03-26T06:00:02.000160","MEAN_MOTION":16.08239655,"ECCENTRICITY":0.00012567,"INCLINATION":97.2818,"RA_OF_ASC_NODE":208.1313,"ARG_OF_PERICENTER":49.5739,"MEAN_ANOMALY":43.0119,"EPHEMERIS_TYPE":0,"CLASSIFICATION_TYPE":"U","NORAD_CAT_ID":68309,"ELEMENT_SET_NO":999,"REV_AT_EPOCH":181,"BSTAR":-0.001068438,"MEAN_MOTION_DOT":-0.00883671,"MEAN_MOTION_DDOT":0.00028771087},{"OBJECT_NAME":"STARLINK-37148","OBJECT_ID":"2026-057S","EPOCH":"2026-03-26T06:00:02.000160","MEAN_MOTION":16.08488491,"ECCENTRICITY":0.00012042,"INCLINATION":97.2817,"RA_OF_ASC_NODE":208.1324,"ARG_OF_PERICENTER":50.3659,"MEAN_ANOMALY":45.0328,"EPHEMERIS_TYPE":0,"CLASSIFICATION_TYPE":"U","NORAD_CAT_ID":68310,"ELEMENT_SET_NO":999,"REV_AT_EPOCH":192,"BSTAR":-0.0010503453,"MEAN_MOTION_DOT":-0.00882493,"MEAN_MOTION_DDOT":0.00028791583},{"OBJECT_NAME":"STARLINK-37140","OBJECT_ID":"2026-057T","EPOCH":"2026-03-26T06:00:02.000160","MEAN_MOTION":16.08367245,"ECCENTRICITY":0.00011965,"INCLINATION":97.2818,"RA_OF_ASC_NODE":208.1322,"ARG_OF_PERICENTER":52.7717,"MEAN_ANOMALY":41.3099,"EPHEMERIS_TYPE":0,"CLASSIFICATION_TYPE":"U","NORAD_CAT_ID":68311,"ELEMENT_SET_NO":999,"REV_AT_EPOCH":208,"BSTAR":-0.001053982,"MEAN_MOTION_DOT":-0.00878804,"MEAN_MOTION_DDOT":0.0002852476},{"OBJECT_NAME":"STARLINK-36854","OBJECT_ID":"2026-057U","EPOCH":"2026-03-26T06:00:02.000160","MEAN_MOTION":16.08592494,"ECCENTRICITY":0.00012606,"INCLINATION":97.2817,"RA_OF_ASC_NODE":208.1334,"ARG_OF_PERICENTER":52.4183,"MEAN_ANOMALY":44.2657,"EPHEMERIS_TYPE":0,"CLASSIFICATION_TYPE":"U","NORAD_CAT_ID":68312,"ELEMENT_SET_NO":999,"REV_AT_EPOCH":187,"BSTAR":-0.0010335394,"MEAN_MOTION_DOT":-0.00874195,"MEAN_MOTION_DDOT":0.00028330099},{"OBJECT_NAME":"STARLINK-36815","OBJECT_ID":"2026-057V","EPOCH":"2026-03-26T06:00:02.000160","MEAN_MOTION":16.0873244,"ECCENTRICITY":0.00012641,"INCLINATION":97.2818,"RA_OF_ASC_NODE":208.1342,"ARG_OF_PERICENTER":47.7722,"MEAN_ANOMALY":50.4439,"EPHEMERIS_TYPE":0,"CLASSIFICATION_TYPE":"U","NORAD_CAT_ID":68313,"ELEMENT_SET_NO":999,"REV_AT_EPOCH":187,"BSTAR":-0.0010245419,"MEAN_MOTION_DOT":-0.00874325,"MEAN_MOTION_DDOT":0.00028389007},{"OBJECT_NAME":"STARLINK-37155","OBJECT_ID":"2026-057W","EPOCH":"2026-03-26T06:00:02.000160","MEAN_MOTION":16.09018208,"ECCENTRICITY":0.00012014,"INCLINATION":97.2816,"RA_OF_ASC_NODE":208.1355,"ARG_OF_PERICENTER":49.4068,"MEAN_ANOMALY":52.0068,"EPHEMERIS_TYPE":0,"CLASSIFICATION_TYPE":"U","NORAD_CAT_ID":68314,"ELEMENT_SET_NO":999,"REV_AT_EPOCH":192,"BSTAR":-0.0009909282,"MEAN_MOTION_DOT":-0.00861277,"MEAN_MOTION_DDOT":0.00027711446},{"OBJECT_NAME":"STARLINK-37150","OBJECT_ID":"2026-057X","EPOCH":"2026-03-26T06:00:02.000160","MEAN_MOTION":16.08887519,"ECCENTRICITY":0.00010986,"INCLINATION":97.2816,"RA_OF_ASC_NODE":208.1348,"ARG_OF_PERICENTER":54.6391,"MEAN_ANOMALY":45.2917,"EPHEMERIS_TYPE":0,"CLASSIFICATION_TYPE":"U","NORAD_CAT_ID":68315,"ELEMENT_SET_NO":999,"REV_AT_EPOCH":192,"BSTAR":-0.001005423,"MEAN_MOTION_DOT":-0.0086656,"MEAN_MOTION_DDOT":0.00027979659},{"OBJECT_NAME":"STARLINK-37154","OBJECT_ID":"2026-057Y","EPOCH":"2026-03-26T06:00:02.000160","MEAN_MOTION":16.0931091,"ECCENTRICITY":0.00011531,"INCLINATION":97.2814,"RA_OF_ASC_NODE":208.1368,"ARG_OF_PERICENTER":55.7084,"MEAN_ANOMALY":48.9359,"EPHEMERIS_TYPE":0,"CLASSIFICATION_TYPE":"U","NORAD_CAT_ID":68316,"ELEMENT_SET_NO":999,"REV_AT_EPOCH":182,"BSTAR":-0.0009621941,"MEAN_MOTION_DOT":-0.00852181,"MEAN_MOTION_DDOT":0.00027275186},{"OBJECT_NAME":"STARLINK-37139","OBJECT_ID":"2026-057Z","EPOCH":"2026-03-26T06:00:02.000160","MEAN_MOTION":16.09171417,"ECCENTRICITY":0.00012095,"INCLINATION":97.2814,"RA_OF_ASC_NODE":208.1361,"ARG_OF_PERICENTER":52.8472,"MEAN_ANOMALY":50.1984,"EPHEMERIS_TYPE":0,"CLASSIFICATION_TYPE":"U","NORAD_CAT_ID":68317,"ELEMENT_SET_NO":999,"REV_AT_EPOCH":167,"BSTAR":-0.00098190354,"MEAN_MOTION_DOT":-0.0086183,"MEAN_MOTION_DDOT":0.00027799518}]
